NORAD_CAT_ID,OBJECT_NAME,OBJECT_TYPE,EPOCH,MEAN_MOTION,ECCENTRICITY,INCLINATION,RA_OF_ASC_NODE,ARG_OF_PERICENTER,MEAN_ANOMALY,BSTAR,MEAN_MOTION_DOT,MEAN_MOTION_DDOT,TLE_LINE0,TLE_LINE1,TLE_LINE2,SEMIMAJOR_AXIS,PERIOD,APOGEE,PERIGEE,DECAYED
53821.0,STARLINK-4752,PAYLOAD,2023-01-05 16:24:56,15.73248857,0.0005237,53.2155,81.1731,343.7717,16.3134,1.6183e-05,1.651e-05,0.0,0 STARLINK-4752,1 53821U 22114D   23005.68398268  .00001651  00000-0  16183-4 0  9995,2 53821  53.2155  81.1731 0005237 343.7717  16.3134 15.73248857 18223,6727.755999999999,91.53,353.144,346.098,0.0
53821.0,STARLINK-4752,PAYLOAD,2023-01-06 13:45:41,15.73172592,0.0005089,53.2156,76.7727,343.2236,16.8615,-7.5766e-05,-0.00011241,0.0,0 STARLINK-4752,1 53821U 22114D   23006.57339976 -.00011241  00000-0 -75766-4 0  9995,2 53821  53.2156  76.7727 0005089 343.2236  16.8615 15.73172592 17810,6727.973000000001,91.535,353.26199999999994,346.414,0.0
53821.0,STARLINK-4752,PAYLOAD,2023-01-07 05:00:30,15.73175391,0.0005282,53.2156,73.6301,308.3325,51.722,3.5478e-05,4.354e-05,0.0,0 STARLINK-4752,1 53821U 22114D   23007.20868378  .00004354  00000-0  35478-4 0  9990,2 53821  53.2156  73.6301 0005282 308.3325  51.7220 15.73175391 18462,6727.965,91.535,353.384,346.277,0.0
53821.0,STARLINK-4752,PAYLOAD,2023-01-07 11:06:25,15.73203954,0.0003311,53.2152,72.3704,355.5349,4.5641,0.00019672,0.00027086,0.0,0 STARLINK-4752,1 53821U 22114D   23007.46279876  .00027086  00000-0  19672-3 0  9991,2 53821  53.2152  72.3704 0003311 355.5349   4.5641 15.73203954 17955,6727.884,91.533,351.977,347.521,0.0
53821.0,STARLINK-4752,PAYLOAD,2023-01-08 03:52:44,15.73178752,0.0006832,53.2158,68.9121,318.2566,41.7932,-1.6784e-05,-2.985e-05,0.0,0 STARLINK-4752,1 53821U 22114D   23008.16162538 -.00002985  00000-0 -16784-4 0  9990,2 53821  53.2158  68.9121 0006832 318.2566  41.7932 15.73178752 18069,6727.956,91.534,354.417,345.224,0.0
53821.0,STARLINK-4752,PAYLOAD,2023-01-08 23:41:57,15.73230706,0.0004109,53.2149,64.827,315.3131,44.7558,0.0001056,0.00014247,0.0,0 STARLINK-4752,1 53821U 22114D   23008.98747360  .00014247  00000-0  10560-3 0  9999,2 53821  53.2149  64.8270 0004109 315.3131  44.7558 15.73230706 18199,6727.808000000001,91.531,352.4369999999999,346.908,0.0
53821.0,STARLINK-4752,PAYLOAD,2023-01-09 10:22:18,15.73238226,0.000504,53.2144,62.6252,321.1723,38.8935,5.2603e-05,6.779e-05,0.0,0 STARLINK-4752,1 53821U 22114D   23009.43216146  .00006779  00000-0  52603-4 0  9999,2 53821  53.2144  62.6252 0005040 321.1723  38.8935 15.73238226 18814,6727.786,91.531,353.042,346.26,0.0
53821.0,STARLINK-4752,PAYLOAD,2023-01-10 09:14:29,15.73213237,0.0005905,53.2138,57.9098,323.3382,36.7233,-7.5318e-05,-0.00011202,0.0,0 STARLINK-4752,1 53821U 22114D   23010.38506736 -.00011202  00000-0 -75318-4 0  9999,2 53821  53.2138  57.9098 0005905 323.3382  36.7233 15.73213237 18416,6727.857,91.532,353.695,345.75,0.0
53821.0,STARLINK-4752,PAYLOAD,2023-01-10 12:17:27,15.73202191,0.000546,53.2128,57.28,321.2288,38.834,-7.420300000000001e-05,-0.00011038,0.0,0 STARLINK-4752,1 53821U 22114D   23010.51212561 -.00011038  00000-0 -74203-4 0  9993,2 53821  53.2128  57.2800 0005460 321.2288  38.8340 15.73202191 18988,6727.889,91.533,353.427,346.08,0.0
53821.0,STARLINK-4752,PAYLOAD,2023-01-10 22:57:48,15.73222665,0.0005242,53.213,55.0795,324.6377,35.4295,7.7543e-05,0.00010288,0.0,0 STARLINK-4752,1 53821U 22114D   23010.95681431  .00010288  00000-0  77543-4 0  9991,2 53821  53.2130  55.0795 0005242 324.6377  35.4295 15.73222665 18502,6727.831,91.532,353.222,346.1690000000001,0.0
53821.0,STARLINK-4752,PAYLOAD,2023-01-11 09:38:09,15.73227421,0.0005217,53.2143,52.8789,315.8138,44.2465,0.00010559,0.00014246,0.0,0 STARLINK-4752,1 53821U 22114D   23011.40150288  .00014246  00000-0  10559-3 0  9994,2 53821  53.2143  52.8789 0005217 315.8138  44.2465 15.73227421 19124,6727.816999999999,91.532,353.19199999999995,346.172,0.0
53821.0,STARLINK-4752,PAYLOAD,2023-01-11 23:21:28,15.73227404,0.0005446,53.2136,50.0498,317.2744,42.7852,4.6672e-05,5.941e-05,0.0,0 STARLINK-4752,1 53821U 22114D   23011.97324901  .00005941  00000-0  46672-4 0  9999,2 53821  53.2136  50.0498 0005446 317.2744  42.7852 15.73227404 18668,6727.816999999999,91.532,353.346,346.0180000000001,0.0
53821.0,STARLINK-4752,PAYLOAD,2023-01-12 08:30:22,15.7318217,0.000573,53.2149,48.1606,313.9375,46.1172,-8.282399999999999e-05,-0.00012237,0.0,0 STARLINK-4752,1 53821U 22114D   23012.35442441 -.00012237  00000-0 -82824-4 0  9999,2 53821  53.2149  48.1606 0005730 313.9375  46.1172 15.73182170 18720,6727.946,91.534,353.666,345.956,0.0
53821.0,STARLINK-4752,PAYLOAD,2023-01-12 22:13:43,15.73160482,0.0004893,53.2157,45.3336,307.8519,52.2058,1.3359e-06,-4.39e-06,0.0,0 STARLINK-4752,1 53821U 22114D   23012.92619462 -.00000439  00000-0  13359-5 0  9999,2 53821  53.2157  45.3336 0004893 307.8519  52.2058 15.73160482 18812,6728.008000000002,91.535,353.165,346.581,0.0
53821.0,STARLINK-4752,PAYLOAD,2023-01-13 11:57:03,15.73197252,0.0004151,53.215,42.5075,306.6872,53.3767,0.0001199999999999,0.00016255,0.0,0 STARLINK-4752,1 53821U 22114D   23013.49795253  .00016255  00000-0  12000-3 0  9997,2 53821  53.2150  42.5075 0004151 306.6872  53.3767 15.73197252 18904,6727.903,91.533,352.561,346.975,0.0
53821.0,STARLINK-4752,PAYLOAD,2023-01-14 07:46:17,15.73204931,0.0003754999999999,53.2154,38.414,302.4869,57.5787,6.131600000000001e-05,7.994e-05,0.0,0 STARLINK-4752,1 53821U 22114D   23014.32381675  .00007994  00000-0  61316-4 0  9994,2 53821  53.2154  38.4140 0003755 302.4869  57.5787 15.73204931 19030,6727.880999999999,91.533,352.272,347.22,0.0
53821.0,STARLINK-4752,PAYLOAD,2023-01-15 02:04:03,15.73211033,0.0003733,53.2149,34.6442,310.5472,49.5223,0.00011808,0.00015993,0.0,0 STARLINK-4752,1 53821U 22114D   23015.08615584  .00015993  00000-0  11808-3 0  9995,2 53821  53.2149  34.6442 0003733 310.5472  49.5223 15.73211033 19153,6727.8640000000005,91.533,352.24,347.217,0.0
53821.0,STARLINK-4752,PAYLOAD,2023-01-15 11:12:56,15.73244416,0.0003701,53.2159,32.7587,314.1565,45.9151,0.00021869,0.00030247,0.0,0 STARLINK-4752,1 53821U 22114D   23015.46731645  .00030247  00000-0  21869-3 0  9991,2 53821  53.2159  32.7587 0003701 314.1565  45.9151 15.73244416 19219,6727.769,91.531,352.12300000000005,347.144,0.0
53821.0,STARLINK-4752,PAYLOAD,2023-01-16 07:02:10,15.73237724,0.0002008,53.2157,28.6708,305.5317,54.5516,0.00030605,0.00042621,0.0,0 STARLINK-4752,1 53821U 22114D   23016.29318133  .00042621  00000-0  30605-3 0  9993,2 53821  53.2157  28.6708 0002008 305.5317  54.5516 15.73237724 19343,6727.7880000000005,91.531,351.004,348.302,0.0
53821.0,STARLINK-4752,PAYLOAD,2023-01-16 10:05:08,15.7317864,0.0001564999999999,53.2161,28.0418,317.0221,43.0677,-5.2101e-05,-7.919e-05,0.0,0 STARLINK-4752,1 53821U 22114D   23016.42023643 -.00007919  00000-0 -52101-4 0  9996,2 53821  53.2161  28.0418 0001565 317.0221  43.0677 15.73178640 19363,6727.956,91.534,350.874,348.76800000000003,0.0
53821.0,STARLINK-4752,PAYLOAD,2023-01-16 17:42:33,15.73193859,0.0002576,53.2165,26.4705,286.9638,73.11,2.0188e-05,2.212e-05,0.0,0 STARLINK-4752,1 53821U 22114D   23016.73788313  .00002212  00000-0  20188-4 0  9991,2 53821  53.2165  26.4705 0002576 286.9638  73.1100 15.73193859 19967,6727.9130000000005,91.534,351.511,348.045,0.0
53821.0,STARLINK-4752,PAYLOAD,2023-01-17 01:19:57,15.73198325,0.0002174,53.2155,24.8986,294.2047,65.8746,0.0004162,0.00058195,0.0,0 STARLINK-4752,1 53821U 22114D   23017.05553003  .00058195  00000-0  41620-3 0  9997,2 53821  53.2155  24.8986 0002174 294.2047  65.8746 15.73198325 19461,6727.9,91.533,351.228,348.302,0.0
53821.0,STARLINK-4752,PAYLOAD,2023-01-17 07:25:52,15.73252094,0.0001431,53.2164,23.6418,295.2409,64.8463,0.00035605,0.00049758,0.0,0 STARLINK-4752,1 53821U 22114D   23017.30963380  .00049758  00000-0  35605-3 0  9999,2 53821  53.2164  23.6418 0001431 295.2409  64.8463 15.73252094 19500,6727.746999999999,91.53,350.574,348.649,0.0
53821.0,STARLINK-4752,PAYLOAD,2023-01-17 22:40:40,15.73226565,0.0001916999999999,53.2162,20.4966,305.5619,54.5223,0.00015412,0.00021089,0.0,0 STARLINK-4752,1 53821U 22114D   23017.94491299  .00021089  00000-0  15412-3 0  9995,2 53821  53.2162  20.4966 0001917 305.5619  54.5223 15.73226565 19603,6727.819,91.532,350.974,348.395,0.0
53821.0,STARLINK-4752,PAYLOAD,2023-01-18 09:21:01,15.732563199999998,0.0001339,53.2154,18.2961,286.0324,74.0549,0.00045329,0.00063634,0.0,0 STARLINK-4752,1 53821U 22114D   23018.38960136  .00063634  00000-0  45329-3 0  9997,2 53821  53.2154  18.2961 0001339 286.0324  74.0549 15.73256320 20228,6727.735,91.53,350.5,348.699,0.0
53821.0,STARLINK-4752,PAYLOAD,2023-01-19 03:38:47,15.73196975,0.0001093,53.2164,14.5235,316.8707,43.2228,9.4842e-05,0.00012709,0.0,0 STARLINK-4752,1 53821U 22114D   23019.15194198  .00012709  00000-0  94842-4 0  9992,2 53821  53.2164  14.5235 0001093 316.8707  43.2228 15.73196975 19797,6727.904,91.533,350.504,349.033,0.0
53821.0,STARLINK-4752,PAYLOAD,2023-01-19 06:41:45,15.73207309,0.0001183,53.2152,13.8971,326.2004,33.894,0.00022031,0.00030421,0.0,0 STARLINK-4752,1 53821U 22114D   23019.27899771  .00030421  00000-0  22031-3 0  9995,2 53821  53.2152  13.8971 0001183 326.2004  33.8940 15.73207309 19811,6727.874,91.533,350.535,348.94300000000004,0.0
53821.0,STARLINK-4752,PAYLOAD,2023-01-20 16:14:19,15.73263467,6.54e-05,53.216,6.9789,333.7172,26.3815,0.00033341,0.00046559,0.0,0 STARLINK-4752,1 53821U 22114D   23020.67661576  .00046559  00000-0  33341-3 0  9996,2 53821  53.2160   6.9789 0000654 333.7172  26.3815 15.73263467 20032,6727.714,91.529,350.019,349.139,0.0
53821.0,STARLINK-4752,PAYLOAD,2023-01-21 04:26:09,15.73239312,2.51e-05,53.2158,4.4631,22.4036,337.6995,0.00044197,0.00061971,0.0,0 STARLINK-4752,1 53821U 22114D   23021.18483750  .00061971  00000-0  44197-3 0  9995,2 53821  53.2158   4.4631 0000251  22.4036 337.6995 15.73239312 20110,6727.783,91.531,349.81699999999995,349.47900000000004,0.0
